ONEWEB-0420             
1 50495U 21132AC  23059.48038131  .00000015  00000+0  48739-5 0  9990
2 50495  87.9223 214.8077 0001245 110.5962 249.5303 13.18683668 62803
ONEWEB-0420             
1 50495U 21132AC  23059.70801076  .00000097  00000+0  21296-3 0  9998
2 50495  87.9224 214.7625 0001252 110.8574 249.2692 13.18684113 64134
ONEWEB-0420             
1 50495U 21132AC  23059.85976431  .00000077  00000+0  16382-3 0  9990
2 50495  87.9225 214.7325 0001252 111.0484 249.0782 13.18683852 62859
ONEWEB-0420             
1 50495U 21132AC  23060.84616097  .00000038  00000+0  62903-4 0  9998
2 50495  87.9224 214.5370 0001293 112.0817 248.0453 13.18683831 62987
ONEWEB-0420             
1 50495U 21132AC  23061.14966723  .00000114  00000+0  25731-3 0  9998
2 50495  87.9225 214.4769 0001295 112.3544 247.7726 13.18684001 64320
ONEWEB-0420             
1 50495U 21132AC  23061.83255768 -.00000027  00000+0 -10164-3 0  9993
2 50495  87.9226 214.3417 0001295 112.9768 247.1501 13.18683605 63114
ONEWEB-0420             
1 50495U 21132AC  23062.36369277  .00000100  00000+0  22133-3 0  9992
2 50495  87.9223 214.2364 0001293 113.5170 246.6098 13.18684722 64480
ONEWEB-0420             
1 50495U 21132AC  23062.43956976  .00000089  00000+0  19345-3 0  9995
2 50495  87.9223 214.2214 0001303 113.4140 246.7130 13.18684308 63197
ONEWEB-0420             
1 50495U 21132AC  23062.89482939  .00000019  00000+0  15176-4 0  9990
2 50495  87.9225 214.1311 0001296 113.9056 246.2212 13.18684695 63250
